ORBCOMM FM24 [-]        
1 25478U 98053D   24015.59709653  .00001898  00000+0  70782-3 0  9999
2 25478  45.0070 201.9594 0001697 147.1139 212.9814 14.35115510322878
ORBCOMM FM25 [-]        
1 25479U 98053E   24015.63160806  .00001923  00000+0  71661-3 0  9992
2 25479  45.0061 200.0340 0004189 166.3759 193.7202 14.35097068323176
ORBCOMM FM26 [-]        
1 25480U 98053F   24015.59643057  .00001845  00000+0  69610-3 0  9997
2 25480  45.0058 193.8647 0006124 189.4791 170.5941 14.34620643323113
ORBCOMM FM27 [+]        
1 25481U 98053G   24015.61796516  .00001905  00000+0  71082-3 0  9993
2 25481  45.0046 200.3593 0000148 162.4759 197.6094 14.35075638323107
ORBCOMM FM28 [-]        
1 25482U 98053H   24016.12842673  .00002314  00000+0  84472-3 0  9999
2 25482  45.0053 136.8181 0005370 220.2736 139.7714 14.35549906324013
ORBCOMM FM30 [-]        
1 25980U 99065A   24015.01261357  .00002213  00000+0  82278-3 0  9997
2 25980  45.0337  22.0336 0008139 287.9731  72.0229 14.34762857259827
ORBCOMM FM31 [-]        
1 25981U 99065B   24016.09297250  .00002311  00000+0  85686-3 0  9993
2 25981  45.0244  10.7227 0005120 307.8466  52.1917 14.34780347260506
ORBCOMM FM32 [+]        
1 25982U 99065C   24015.43415553  .00002150  00000+0  81686-3 0  9996
2 25982  45.0179  26.7894 0007315 308.1837  51.8350 14.33754115260088
